EMISAT                  
1 44078U 19018A   26135.29248922 -.00000017  00000+0  79678-5 0  9997
2 44078  98.4670 194.2691 0017631 320.1650  39.8245 14.43670448375317
JILIN-1 GAOFEN 3A       
1 44312U 19032C   26135.29200951  .00005089  00000+0  17194-3 0  9990
2 44312  44.9741 177.8709 0003296 117.0363 243.0858 15.31881631382791
PROX-1                  
1 44339U 19036A   26134.77749437  .00008091  00000+0  79414-3 0  9991
2 44339  23.9963 337.2774 0006599   7.7531 352.3070 14.89785591368488
NPSAT1                  
1 44340U 19036B   26135.15750913  .00003132  00000+0  42666-3 0  9997
2 44340  23.9984  72.8186 0007836 195.3112 164.7147 14.74254572367614
FORMOSAT 7-3            
1 44343U 19036E   26135.13655379  .00002749  00000+0  14606-3 0  9994
2 44343  23.9995  45.9649 0000474 234.4526 125.5933 15.09535787378247
FORMOSAT 7-1            
1 44349U 19036L   26134.63978008  .00001754  00000+0  12515-3 0  9993
2 44349  23.9972 258.5357 0000955 125.2534 234.8056 14.96361817379625
FORMOSAT 7-4            
1 44350U 19036M   26134.72883216  .00001821  00000+0  13094-3 0  9999
2 44350  23.9990 320.0391 0001143 146.2041 213.8533 14.96355855379055
FORMOSAT 7-2            
1 44351U 19036N   26135.01792518  .00001780  00000+0  12743-3 0  9991
2 44351  23.9989  12.4036 0000697 146.5543 213.5002 14.96353443378615
FORMOSAT 7-6            
1 44353U 19036Q   26135.28458245  .00001500  00000+0  10321-3 0  9998
2 44353  23.9962 191.4250 0001453  81.0433 279.0232 14.96364569376886
FORMOSAT 7-5            
1 44358U 19036V   26135.26193034  .00001535  00000+0  10633-3 0  9997
2 44358  23.9973 130.3255 0000617 131.9510 228.1044 14.96363484377413
METEOR-M2 2             
1 44387U 19038A   26135.22886308  .00000391  00000+0  18897-3 0  9999
2 44387  98.9132 122.0305 0002332  98.1709 261.9734 14.24357479356605
GLOBAL-4                
1 44499U 19054E   26135.09382421  .00034942  00000+0  40629-3 0  9990
2 44499  45.0071  66.8725 0003716 124.9582 235.1664 15.61157159375183
ZY-1 02D                
1 44528U 19059A   26135.30813895 -.00000056  00000+0 -48515-5 0  9991
2 44528  98.3210 197.9539 0001046 157.9781 202.1450 14.35448580349620
TAURUS-1 (JINNIUZUO 1)  
1 44530U 19059C   26135.27270244  .00002932  00000+0  47881-3 0  9991
2 44530  98.6384 298.0739 0009306  62.1591 298.0556 14.71717764353805
ZHUHAI-1 03B            
1 44536U 19060C   26135.32448624  .00017085  00000+0  28299-3 0  9991
2 44536  97.5490 291.3737 0009714  82.3239 277.9116 15.52191821371221
ZHUHAI-1 03C            
1 44537U 19060D   26135.29178325  .00289969  35370-4  71544-3 0  9992
2 44537  97.5444 304.0500 0004998 306.8530  53.2287 15.95976781372002
ZHUHAI-1 03D            
1 44538U 19060E   26135.33719590  .00017447  00000+0  33709-3 0  9991
2 44538  97.5350 283.7976 0008122  69.1455 291.0664 15.47818888370994
ZHUHAI-1 03E            
1 44539U 19060F   26135.31051512  .00010209  00000+0  25834-3 0  9992
2 44539  97.5567 284.1559 0007101 135.0754 225.1067 15.39937842370705
GAOFEN-7                
1 44703U 19072A   26135.31447126  .00002484  00000+0  11352-3 0  9994
2 44703  97.2449 198.0130 0017558 146.6047 213.6301 15.21330222362649
JILIN-1 GAOFEN 2A       
1 44777U 19075A   26135.29668900  .00008205  00000+0  21900-3 0  9997
2 44777  97.4968 218.3427 0006493 187.4952 172.6197 15.38372682359824
NINGXIA-1 1             
1 44779U 19076A   26135.11787377 -.00000060  00000+0  45570-4 0  9993
2 44779  45.0070 327.6322 0011113 358.3967   1.6829 14.02035515333216
NINGXIA-1 5             
1 44783U 19076E   26135.06104113 -.00000195  00000+0 -42162-4 0  9997
2 44783  45.0070 327.2414 0011143 348.1430  11.9141 14.02083032333122
KL-ALPHA A              
1 44785U 19077A   26135.28447563  .00000090  00000+0  11158-3 0  9995
2 44785  88.9262 226.1592 0010475 194.1705 165.9157 13.56039323321270
CARTOSAT-3              
1 44804U 19081A   26135.29137262  .00002217  00000+0  10843-3 0  9998
2 44804  97.4330 197.6825 0011047 265.8012  94.1960 15.19207604358474
JILIN-1 GAOFEN 2B       
1 44836U 19086A   26135.24250835  .00003604  00000+0  16854-3 0  9994
2 44836  97.4893 207.4482 0015646  77.5962 282.7023 15.20312903355487
TIANQIN 1 (CAS-6)       
1 44879U 19093A   26135.30062083  .00001104  00000+0  10549-3 0  9990
2 44879  97.7797 219.3834 0011829 157.6269 202.5470 14.95259203347135
ETRSS-1                 
1 44880U 19093B   26135.24971801  .00001891  00000+0  17512-3 0  9992
2 44880  97.7816 219.7633 0012171 156.7411 203.4363 14.95666775347137
