OBJECT_NAME,OBJECT_ID,EPOCH,MEAN_MOTION,ECCENTRICITY,INCLINATION,RA_OF_ASC_NODE,ARG_OF_PERICENTER,MEAN_ANOMALY,EPHEMERIS_TYPE,CLASSIFICATION_TYPE,NORAD_CAT_ID,ELEMENT_SET_NO,REV_AT_EPOCH,BSTAR,MEAN_MOTION_DOT,MEAN_MOTION_DDOT
EMISAT,2019-018A,2026-05-15T07:01:11.068608,14.43670448,.00176312,98.4670,194.2691,320.1650,39.8245,0,U,44078,999,37531,.796783E-5,-.17E-6,0
JILIN-1 GAOFEN 3A,2019-032C,2026-05-15T07:00:29.621664,15.31881631,.0003296,44.9741,177.8709,117.0363,243.0858,0,U,44312,999,38279,.171942E-3,.5089E-4,0
PROX-1,2019-036A,2026-05-14T18:39:35.513568,14.89785591,.00065997,23.9963,337.2774,7.7531,352.3070,0,U,44339,999,36848,.79414217E-3,.8091E-4,0
NPSAT1,2019-036B,2026-05-15T03:46:48.788832,14.74254572,.00078363,23.9984,72.8186,195.3112,164.7147,0,U,44340,999,36761,.42665769E-3,.3132E-4,0
FORMOSAT 7-3,2019-036E,2026-05-15T03:16:38.247456,15.09535787,.00004744,23.9995,45.9649,234.4526,125.5933,0,U,44343,999,37824,.14605729E-3,.2749E-4,0
FORMOSAT 7-1,2019-036L,2026-05-14T15:21:16.998912,14.96361817,.00009556,23.9972,258.5357,125.2534,234.8056,0,U,44349,999,37962,.12514633E-3,.1754E-4,0
FORMOSAT 7-4,2019-036M,2026-05-14T17:29:31.098624,14.96355855,.00011433,23.9990,320.0391,146.2041,213.8533,0,U,44350,999,37905,.13093617E-3,.1821E-4,0
FORMOSAT 7-2,2019-036N,2026-05-15T00:25:48.735552,14.96353443,.00006978,23.9989,12.4036,146.5543,213.5002,0,U,44351,999,37861,.12742577E-3,.178E-4,0
FORMOSAT 7-6,2019-036Q,2026-05-15T06:49:47.923680,14.96364569,.00014537,23.9962,191.4250,81.0433,279.0232,0,U,44353,999,37688,.10321474E-3,.15E-4,0
FORMOSAT 7-5,2019-036V,2026-05-15T06:17:10.781376,14.96363484,.0000617,23.9973,130.3255,131.9510,228.1044,0,U,44358,999,37741,.10632557E-3,.1535E-4,0
METEOR-M2 2,2019-038A,2026-05-15T05:29:33.770112,14.24357479,.00023324,98.9132,122.0305,98.1709,261.9734,0,U,44387,999,35660,.18896834E-3,.391E-5,0
GLOBAL-4,2019-054E,2026-05-15T02:15:06.411744,15.61157159,.00037166,45.0071,66.8725,124.9582,235.1664,0,U,44499,999,37518,.40629382E-3,.34942E-3,0
ZY-1 02D,2019-059A,2026-05-15T07:23:43.205280,14.35448580,.0001046,98.3210,197.9539,157.9781,202.1450,0,U,44528,999,34962,-.4851518E-5,-.56E-6,0
TAURUS-1 (JINNIUZUO 1),2019-059C,2026-05-15T06:32:41.490816,14.71717764,.00093066,98.6384,298.0739,62.1591,298.0556,0,U,44530,999,35380,.47880756E-3,.2932E-4,0
ZHUHAI-1 03B,2019-060C,2026-05-15T07:47:15.611136,15.52191821,.00097144,97.5490,291.3737,82.3239,277.9116,0,U,44536,999,37122,.28298793E-3,.17085E-3,0
ZHUHAI-1 03C,2019-060D,2026-05-15T07:00:10.072800,15.95976781,.00049983,97.5444,304.0500,306.8530,53.2287,0,U,44537,999,37200,.71543827E-3,.289969E-2,.35370324E-4
ZHUHAI-1 03D,2019-060E,2026-05-15T08:05:33.725760,15.47818888,.00081221,97.5350,283.7976,69.1455,291.0664,0,U,44538,999,37099,.33709421E-3,.17447E-3,0
ZHUHAI-1 03E,2019-060F,2026-05-15T07:27:08.506368,15.39937842,.00071018,97.5567,284.1559,135.0754,225.1067,0,U,44539,999,37070,.25834136E-3,.10209E-3,0
GAOFEN-7,2019-072A,2026-05-15T07:32:50.316864,15.21330222,.00175581,97.2449,198.0130,146.6047,213.6301,0,U,44703,999,36264,.11351875E-3,.2484E-4,0
JILIN-1 GAOFEN 2A,2019-075A,2026-05-15T07:07:13.929600,15.38372682,.00064934,97.4968,218.3427,187.4952,172.6197,0,U,44777,999,35982,.21899755E-3,.8205E-4,0
NINGXIA-1 1,2019-076A,2026-05-15T02:49:44.293728,14.02035515,.0011113,45.0070,327.6322,358.3967,1.6829,0,U,44779,999,33321,.45570266E-4,-.6E-6,0
NINGXIA-1 5,2019-076E,2026-05-15T01:27:53.953632,14.02083032,.00111437,45.0070,327.2414,348.1430,11.9141,0,U,44783,999,33312,-.42162232E-4,-.195E-5,0
KL-ALPHA A,2019-077A,2026-05-15T06:49:38.694432,13.56039323,.00104753,88.9262,226.1592,194.1705,165.9157,0,U,44785,999,32127,.11157565E-3,.9E-6,0
CARTOSAT-3,2019-081A,2026-05-15T06:59:34.594368,15.19207604,.00110477,97.4330,197.6825,265.8012,94.1960,0,U,44804,999,35847,.10842856E-3,.2217E-4,0
JILIN-1 GAOFEN 2B,2019-086A,2026-05-15T05:49:12.721440,15.20312903,.00156465,97.4893,207.4482,77.5962,282.7023,0,U,44836,999,35548,.16853523E-3,.3604E-4,0
TIANQIN 1 (CAS-6),2019-093A,2026-05-15T07:12:53.639712,14.95259203,.0011829,97.7797,219.3834,157.6269,202.5470,0,U,44879,999,34713,.10548805E-3,.1104E-4,0
ETRSS-1,2019-093B,2026-05-15T05:59:35.636064,14.95666775,.00121718,97.7816,219.7633,156.7411,203.4363,0,U,44880,999,34713,.17512135E-3,.1891E-4,0
